0 REX 2
1 23814U 96014A   13282.01210519  .00000103  00000-0  40029-4 0  9682
2 23814 090.1328 299.2789 0022319 194.1731 220.9422 14.24134915913651
0 REX 2
1 23814U 96014A   13283.50859825  .00000111  00000-0  43595-4 0  9697
2 23814 090.1325 299.3016 0022533 189.2470 333.3180 14.24135288913862
0 REX 2
1 23814U 96014A   13285.68078267  .00000129  00000-0  51280-4 0  9713
2 23814 090.1321 299.3346 0022807 182.3009 309.6980 14.24135849914172
0 REX 2
1 23814U 96014A   13287.13865258  .00000121  00000-0  47504-4 0  9726
2 23814 090.1319 299.3566 0023003 177.6592 223.9022 14.24136249914389
0 REX 2
1 23814U 96014A   13288.49729958  .00000132  00000-0  52373-4 0  9735
2 23814 090.1319 299.3769 0023167 173.3876 349.3588 14.24136813914571
0 REX 2
1 23814U 96014A   13289.54154797  .00000117  00000-0  45967-4 0  9740
2 23814 090.1320 299.3925 0023289 170.1193 302.9573 14.24137207914723
0 REX 2
1 23814U 96014A   13291.07157021  .00000125  00000-0  49464-4 0  9750
2 23814 090.1321 299.4154 0023485 165.3546 226.9747 14.24137589914940
0 REX 2
1 23814U 96014A   13292.12733116  .00000140  00000-0  55811-4 0  9763
2 23814 090.1323 299.4311 0023605 162.0860 239.5622 14.24137792915099
0 REX 2
1 23814U 96014A   13293.48590759  .00000146  00000-0  58413-4 0  9775
2 23814 090.1324 299.4514 0023764 157.9101 004.5698 14.24138119915280
0 REX 2
1 23814U 96014A   13294.60555435  .00000165  00000-0  66837-4 0  9783
2 23814 090.1324 299.4683 0023872 154.4633 344.6652 14.24138376915440
0 REX 2
1 23814U 96014A   13295.65873814  .00000176  00000-0  71453-4 0  9796
2 23814 090.1324 299.4842 0023979 151.2545 343.9922 14.24138537915599
